"ID","Position","EName","X","Y","CArea","EArea","CAddress","EAddress","AvailableCNT","EmpCNT","UpdateTime"
"3001","逢甲大學","Feng Chia University","120.645","24.1787","西屯區","Xitun Dist.","台中市福星路/逢甲路口(潮洋機車停車場)","Fuxing Rd & Fengjia Rd Intersection","41","47","2019-11-16 00:07:06"
"3002","秋紅谷","Maple Valley Park","120.6389","24.1679","西屯區","Xitun Dist.","台中市朝富路/朝馬路口(國光客運朝馬站對面)","Chaofu Rd  & Chaoma Rd Intersection","33","63","2019-11-16 00:07:06"
"3003","市政府(文心樓)","Taichung City Hall (Wenxin Building)","120.6487","24.16144","西屯區","Xitun Dist.","台中市文心路二段645號旁","No.645, Sec. 2, Wenxin Rd","49","15","2019-11-16 00:07:06"
"3004","漢翔福星北路口","Hanxiang Rd. / Fuxing N. Rd.","120.6444","24.18521","西屯區","Xitun Dist.","漢翔路/福星北路交叉路口","Hanxiang Rd & Fuxing N. Rd Intersection","17","43","2019-11-16 00:07:06"
"3005","福星公園","Fuxing Park","120.6481","24.17242","西屯區","Xitun Dist.","寶慶街50巷/河南路二段301巷","Ln. 50, Baoqing St & Ln. 301, Sec. 2, Henan Rd","29","10","2019-11-16 00:07:06"
"3006","櫻花棒球場","Cherry Blossoms Baseball Field","120.6531","24.16867","西屯區","Xitun Dist.","櫻花路/洛陽路口","Yinghua Rd & Luoyang Rd Intersection","17","41","2019-11-16 00:07:06"
"3007","重慶公園","Chongqing Park","120.6555","24.16589","西屯區","Xitun Dist.","西屯路二段/天水西六街","Sec. 2, Situn Rd & Tianshui W. 6th St","33","7","2019-11-16 00:07:06"
"3008","頂何厝","Ding He Cuo","120.6558","24.15908","西屯區","Xitun Dist.","臺灣大道二段/東興路三段路口","Sec. 2, Taiwan Blvd & Sec. 3, Dongxing Rd  Intersection","20","18","2019-11-16 00:07:06"
"3009","公益大英街口","Gongyi Rd. / Daying St.","120.6485","24.15081","南屯區","Nantun Dist.","公益路二段/大英街口(星巴克前)","Sec. 2, Gongyi Rd & Daying St Intersection","21","19","2019-11-16 00:07:06"
"3010","新光/遠百","Mitsukoshi Shin Kong / Top City Dept. Store","120.6429","24.16615","西屯區","Xitun Dist.","臺灣大道三段/惠來路二段","Sec. 3, Taiwan Blvd & Sec. 2, Hueilai Rd","2","74","2019-11-16 00:07:06"
"3011","青海逢甲路口","Qinghai Rd. / Fengjia Rd.","120.6392","24.17465","西屯區","Xitun Dist.","青海路二段/逢甲路口","Sec. 2, Qinghai Rd & Fengjia Rd Intersection","22","22","2019-11-16 00:07:06"
"3012","忠明國小","Chung-Ming Elementary School","120.6592","24.15677","西區","West Dist.","臺灣大道二段/忠明南路口","Sec. 2, Taiwan Blvd & Zhongming S. Rd Intersection","19","27","2019-11-16 00:07:06"
"3013","大墩七街河南路口","Dadun 7th St. / Henan Rd.","120.6396","24.14426","南屯區","Nantun Dist.","大墩七街/河南路四段口","Dadun 7th St & Sec. 4, Henan Rd Intersection","43","7","2019-11-16 00:07:06"
"3014","臺中仁愛醫院","Taichung Jen-Ai Hospital","120.6782","24.1437","中區","Central Dist.","臺灣大道一段/興中街口","Sec. 1, Taiwan Blvd & Xingzhong St Intersection","41","9","2019-11-16 00:07:06"
"3015","博館育德路口","Boguan Rd. / Yude Rd.","120.6691","24.15746","北區","North Dist.","博館路/育德路口","Boguan Rd & Yude Rd Intersection","56","10","2019-11-16 00:07:06"
"3016","科博館/金典酒店","National Museum of Natural Science/ The Splendor Hotel","120.663","24.15553","西區","West Dist.","臺灣大道一段/健行路口","Sec. 1, Taiwan Blvd & Jianxing Rd","33","21","2019-11-16 00:07:06"
"3017","中正國小","Chung-Cheng Elementary School","120.6663","24.15248","西區","West Dist.","英才路/臺灣大道二段179巷","Yingcai Rd & Ln. 179, Sec. 2, Taiwan Blvd","21","37","2019-11-16 00:07:06"
"3018","茄苳腳","Qie Dong Jiao","120.6714","24.15011","西區","West Dist.","臺灣大道一段/梅川東路二段","Sec. 1, Taiwan Blvd & Sec. 2, Meichuan E. Rd","31","23","2019-11-16 00:07:06"
"3019","萬壽棒球場","Wan-Shou Baseball Field","120.6505","24.14657","西區","West Dist.","向上路一段/大進街口","Sec. 1, Xiangshang Rd & Dajin St Intersection","35","17","2019-11-16 00:07:06"
"3020","公益公園","Gong Yi Park","120.6575","24.15042","西區","West Dist.","忠明南路/公益路口","Zhongming S. Rd & Gongyi Rd  Intersection","5","43","2019-11-16 00:07:06"
"3021","大墩文化中心","Dadun Cultural Center","120.6665","24.14125","西區","West Dist.","五權路/英才路口","Wuquan Rd & Yingcai Rd Intersection","16","24","2019-11-16 00:07:06"
"3022","英士公園","Ying Shi Park","120.6756","24.15115","北區","North Dist.","日興街/英士路口","Rixing St & Yingshi Rd Intersection","41","41","2019-11-16 00:07:06"
"3023","大隆東興路口","Dalong Rd./ Dongxing Rd.","120.6541","24.15573","西屯區","Xitun Dist.","大隆路40號前","No.40, Dalong Rd","26","22","2019-11-16 00:07:06"
"3024","文心森林公園","Wen-Hsin Forest Park","120.6461","24.14674","南屯區","Nantun Dist.","文心路一段/向上路二段口","Sec. 1, Wenxin Rd  &  Sec. 2, Xiangshang Rd Intersection","27","21","2019-11-16 00:07:06"
"3025","五權西文心路口","Wuquan W. Rd./ Wenxin Rd.","120.6469","24.13994","南屯區","Nantun Dist.","五權西路二段/文心路一段路口","Sec. 2, Wuquan W. Rd & Sec. 1, Wenxin Rd Intersection","21","21","2019-11-16 00:07:06"
"3026","臺中州廳","Taichung Prefectural Hall","120.6788","24.1383","西區","West Dist.","市府路/民權路口","Shifu Rd & Minquan Rd Intersection","22","20","2019-11-16 00:07:06"
"3027","臺中公園","Taichung Park","120.6842","24.1426","北區","North Dist.","公園路/自由路二段口","Gongyuan Rd & Sec. 2, Ziyou Rd Intersection","35","24","2019-11-16 00:07:06"
"3028","臺中孔廟","Confucius Temple","120.6891","24.15327","北區","North Dist.","雙十路二段/力行路口","Sec. 2, Shuangshi Rd & Lixing Rd Intersection","14","22","2019-11-16 00:07:06"
"3029","育德梅川東路口","Yude Rd./ Meichuan E. Rd.","120.6755","24.15748","北區","North Dist.","育德路/梅川東路三段口","Yude Rd & Sec.3, Meichuan E. Rd","30","10","2019-11-16 00:07:06"
"3030","太原北中清路口","Taiyuan N. Rd./ Zhongqing Rd.","120.6733","24.16512","北區","North Dist.","太原北路/中清路一段口","Taiyuan N. Rd & Sec. 1, Zhongqing Rd Intersection","35","5","2019-11-16 00:07:06"
"3031","臺中教育大學","National Taichung University of Education","120.6712","24.14521","西區","West Dist.","五權路/民權路口","Wuquan Rd & Minquan Rd Intersection","20","16","2019-11-16 00:07:06"
"3032","學士育德路口","Xueshi Rd./ Yude Rd.","120.6812","24.15776","北區","North Dist.","學士路/育德路口(中正停車場廣場)","Xueshi Rd &Yude Rd Intersection","27","29","2019-11-16 00:07:06"
"3033","中山地政事務所","Zhongshan Land Office","120.6737","24.13654","西區","West Dist.","三民路一段/三民路一段156巷口","Sec. 1, Sanmin Rd & Ln. 156, Sec. 1, Sanmin Rd Intersection","12","22","2019-11-16 00:07:06"
"3034","臺中市民廣場","Taichung City Park","120.663","24.15062","西區","West Dist.","中興街/公益路口","Zhongxing St & Gongyi Rd  Intersection","18","45","2019-11-16 00:07:06"
"3035","國立自然科學博物館","National Museum of Natural Science（Guanqian Rd.）","120.6659","24.1562","北區","North Dist.","博館路101號對面","No.101, Boguan Rd","26","30","2019-11-16 00:07:06"
"3036","經國園道","Greenway","120.6648","24.14678","西區","West Dist.","向上路一段/英才路口","Sec. 1, Xiangshang Rd &  Yingcai Rd Intersection","36","22","2019-11-16 00:07:06"
"3037","國立臺灣美術館","National Taiwan Museum of Fine Arts","120.6618","24.14068","西區","West Dist.","五權西路一段/美村路一段口","Sec. 1, Wucyuan W. Rd &Sec. 1, Meicun Rd","29","19","2019-11-16 00:07:06"
"3038","北區行政大樓","North District Administration Building","120.6824","24.16608","北區","North Dist.","永興街/太原路二段口","Yongxing St & Sec. 2, Taiyuan Rd Intersection","34","14","2019-11-16 00:07:06"
"3039","三光太原路口","Sanguang Rd. / Taiyuan Rd.","120.6967","24.16474","北屯區","Beitun Dist.","三光巷/太原路三段口","Sanguang Rd & Sec. 3, Taiyuan Rd Intersection","26","26","2019-11-16 00:07:06"
"3040","北屯兒童公園","Beitun Children's Park","120.6943","24.17019","北屯區","Beitun Dist.","興安路一段/北平路四段口","Sec. 1, Xing’an Rd & Sec. 4, Beiping Rd Intersection","16","24","2019-11-16 00:07:06"
"3041","力行國小","Li Sing Elementary School","120.6939","24.15157","東區","East Dist.","力行路/進化路口","Lixing Rd & Jinhua Rd Intersection","29","21","2019-11-16 00:07:06"
"3042","臺中一中","Taichung First Senior High School","120.6865","24.14918","北區","North Dist.","育才街/尊賢街口","Yucai St & Zunxian St Intersection","23","37","2019-11-16 00:07:06"
"3043","忠誠公園","Chong Cheng Park","120.6628","24.16109","西區","West Dist.","忠明路/華美西街一段口","Zhongming Rd & Sec. 1, Huamei W. St Intersection","13","37","2019-11-16 00:07:06"
"3044","賴明公園","Lai Ming Park","120.6784","24.16711","北區","North Dist.","梅川東路三段/漢口路四段口","Sec. 3, Meichuan E. Rd & Sec. 4, Hankou Rd Intersection","35","5","2019-11-16 00:07:06"
"3045","文華高中","Wen-Hua Senior High School","120.6607","24.17123","西屯區","Xitun Dist.","文心路三段/河南路一段口","Sec. 3, Wenxin Rd & Sec. 1, Henan Rd Intersection","15","55","2019-11-16 00:07:06"
"3046","崇倫公園","Chung Luen Park","120.6611","24.13229","南區","South Dist.","南屯路一段/美村路二段口","Sec. 1, Nantun Rd & Sec. 1, Meicun Rd., West Dist Intersection","31","13","2019-11-16 00:07:06"
"3047","臺中火車站(建國路)","Taichung Railway Station(Jianguo Rd.)","120.6844","24.13738","中區","Central Dist.","建國路/中山路口","Jianguo Rd & Zhongshan Rd Intersection","29","33","2019-11-16 00:07:06"
"3048","黎明國中","Li Ming Junior High School","120.6344","24.15649","南屯區","Nantun Dist.","黎明路二段/市政南二路口","Sec. 2, Liming Rd., Nantun Dist & Shizheng S. 2nd Rd Intersection","15","35","2019-11-16 00:07:06"
"3049","豐樂雕塑公園","Fromlove Park","120.6435","24.13205","南屯區","Nantun Dist.","文心南五路/向心南路口","Wenxin S. 5th Rd & Xiangxin S. Rd Intersection","18","24","2019-11-16 00:07:06"
"3050","惠文高中","Hui-Wen High School","120.6404","24.15364","南屯區","Nantun Dist.","大業路/惠中路二段口","Daye Rd & Sec. 2, Huizhong Rd Intersection","15","29","2019-11-16 00:07:06"
"3051","上石公園","Shang Shi Park","120.6449","24.17284","西屯區","Xitun Dist.","西屯路二段/上石北五巷口","Sec. 2, Xitun Rd & Shangshi N. 5th Ln Intersection","20","16","2019-11-16 00:07:06"
"3052","英才公園","Ying Cai Park","120.671","24.15562","北區","North Dist.","英才路/民權路口","Yingcai Rd & Minquan Rd Intersection","13","34","2019-11-16 00:07:06"
"3053","中德公園","Zhong De Park","120.6684","24.16368","北區","North Dist.","忠明六街/忠太西路口","Zhongming 6th St & Zhongtai W. Rd Intersection","37","7","2019-11-16 00:07:06"
"3054","向心兒童公園","Xiang Xin Children’s Park","120.6446","24.13593","南屯區","Nantun Dist.","文心南二路/向心南路口","Wenxin S. 2nd Rd & Xiangxin S. Rd Intersection","20","26","2019-11-16 00:07:06"
"3055","市政公園停車場","City Hall Garden Parking","120.6445","24.16099","西屯區","Xitun Dist.","市政北五路/惠中路一段口","Shizheng N. 5th Rd. & Sec. 1, Huizhong Rd Intersection","14","32","2019-11-16 00:07:06"
"3056","民俗公園","Min Su Park","120.6881","24.17531","北屯區","Beitun Dist.","熱河路二段/大連路二段口","Sec. 2, Rehe Rd & Sec. 2, Dalian Rd","8","37","2019-11-16 00:07:06"
"3057","臺中國小","Taichung Elementary School","120.6845","24.13201","東區","East Dist.","信義街/臺中路口","Xinyi St & Taizhong Rd Intersection","24","26","2019-11-16 00:07:06"
"3058","國立中興大學","National Chung Hsing University","120.6772","24.12391","南區","South Dist.","興大路/仁德街口","Xingda Rd & Rende St Intersection","26","14","2019-11-16 00:07:06"
"3059","大業公園","Da Ye Park","120.6511","24.15369","南屯區","Nantun Dist.","大業路/大進街口","Daye Rd & Dajin St Intersection","30","6","2019-11-16 00:07:06"
"3060","忠孝國光路口","Zhongxiao Guoguang Intersection","120.6782","24.12811","南區","South Dist.","忠孝路/國光路口","Zhongxiao Rd & Guoguang Rd Intersection","31","17","2019-11-16 00:07:06"
"3061","大智國小","Dazhi Elementary School","120.6906","24.12956","東區","East Dist.","建德街/大智路口","Jiande St & Dazhi Rd Intersection","23","17","2019-11-16 00:07:06"
"3062","健行國小","Jian Xing Elementary School","120.6741","24.15928","北區","North Dist.","健行路/健行路664巷口","Jianxing Rd & Ln. 664, Jianxing Rd Intersection","17","23","2019-11-16 00:07:06"
"3063","東峰公園","Dongfeng Park","120.6883","24.12627","東區","East Dist.","仁和路/立德東街口","Renhe Rd & Lide E. St Intersection","43","0","2019-11-16 00:07:06"
"3064","太原華美街口","Taiyuan Rd./ Huamei St.","120.665","24.16482","北區","North Dist.","太原路一段/華美街二段口","Sec. 1, Taiyuan Rd & Sec. 2, Huamei St Intersection","28","14","2019-11-16 00:07:06"
"3065","柳川東中華路口","Liuchuan E. Rd. / Zhonghua Rd.","120.6783","24.14692","中區","Central Dist.","柳川東路四段/中華路二段口","Sec. 4, Liuchuan E. Rd & Sec. 2, Zhonghua Rd Intersection","24","16","2019-11-16 00:07:06"
"3066","忠明南美村南路口","Zhongming S. Rd. / Meicun S. Rd.","120.6671","24.11898","南區","South Dist.","忠明南路/美村南路口","Zhongming S. Rd & Meicun S. Rd Intersection","34","10","2019-11-16 00:07:06"
"3067","忠明南復興路口","Zhongming S. Rd. / Fuxing Rd.","120.6613","24.12175","南區","South Dist.","忠明南路/復興路二段口","Zhongming S & Sec. 2, Fuxing Rd Intersection","30","10","2019-11-16 00:07:06"
"3068","新福公園","Xinfu Park","120.7014","24.15089","太平區","Taiping Dist.","旱溪東路二段/中山路四段口","Sec. 2, Hanxi E. Rd & Sec. 4, Zhongshan Rd Intersection","21","9","2019-11-16 00:07:06"
"3069","積善公園","Jishan Park","120.6714","24.1149","南區","South Dist.","大明路/興大路口","Daming Rd & Xingda Rd Intersection","15","23","2019-11-16 00:07:06"
"3070","山西公園","Shanxi Park","120.6759","24.17106","北區","North Dist.","山西路二段/北平路二段口","Sec. 2, Shanxi Rd & Sec. 2, Beiping Rd Intersection","23","15","2019-11-16 00:07:06"
"3071","北屯區文昌國小","Beitun Dist. Wun Chang Elementary School","120.6915","24.16712","北屯區","Beitun Dist.","興安路一段/青島路四段口","Sec. 1, Xing’an Rd & Sec. 4, Qingdao Rd Intersection","34","8","2019-11-16 00:07:06"
"3072","祥順運動公園","Xiangshun Sports Park","120.7125","24.13747","太平區","Taiping Dist.","宜昌路87巷/宜昌路口","Ln. 87, Yichang Rd & Yichang Rd Intersection","14","16","2019-11-16 00:07:06"
"3073","永興公園","Yongxing Park","120.6649","24.11674","南區","South Dist.","工學路/工學一街口","Gongxue Rd & Gongxue 1st St Intersection","18","28","2019-11-16 00:07:06"
"3074","臺中高工","National Taichung Industrial High School","120.662","24.11328","南區","South Dist.","高工路/工學二街口","Gaogong Rd & Gongxue 2nd St Intersection","23","37","2019-11-16 00:07:06"
"3075","豐原高商","National Fengyuan Commercial High School","120.7138","24.24529","豐原區","Fengyuan Dist.","圓環南路/中山路口","Yuanhuan S. Rd & Zhongshan Rd Intersection","20","26","2019-11-16 00:07:06"
"3076","興進園道","Xingjin Greenway","120.6967","24.15554","北區","North Dist.","興進路/興進路76巷口","Xingjin Rd & Ln. 76, Xingjin Rd Intersection","0","30","2019-11-16 00:07:06"
"3077","新平國小","Sinping Elementary School","120.7197","24.15436","太平區","Taiping Dist.","育德路162巷/樹孝路274巷9弄口","Ln. 162, Yude Rd & Aly. 9, Ln. 274, Shuxiao Rd Intersection","24","10","2019-11-16 00:07:06"
"3078","大甲鎮瀾宮","Dajia Jenn Lann Temple","120.6237","24.3445","大甲區","Dajia Dist.","鎮瀾街/中華街口","Zhenlan St & Zhonghua St Intersection","21","25","2019-11-16 00:07:06"
"3079","國立公共資訊圖書館","National Library of Public Information","120.6697","24.12745","南區","South Dist.","五權南路100號前","No.100, Wuquan S","16","26","2019-11-16 00:07:06"
"3080","臺中國家歌劇院","National Taichung Theater","120.6401","24.16407","西屯區","Xitun Dist.","惠民路/市政北六路口","Huimin Rd & Shizheng N. 6th Rd Intersection","14","36","2019-11-16 00:07:06"
"3081","豐原廟東夜市","Fengyuan Miao Dong Night Market","120.7186","24.25259","豐原區","Fengyuan Dist.","中正路212巷/信義街口","Ln. 212, Zhongzheng Rd & Xinyi St Intersection","18","18","2019-11-16 00:07:06"
"3082","建成樂業路口","Jiancheng Rd./Leye Rd.","120.6967","24.13858","東區","East Dist.","建成路/樂業路口","Jiancheng Rd & Leye Rd Intersection","27","15","2019-11-16 00:07:06"
"3083","豐原火車站","Fengyuan Station","120.7226","24.25452","豐原區","Fengyuan Dist.","中正路/東北街口","Zhongzheng Rd & Dongbei St Intersection","4","62","2019-11-16 00:07:06"
"3084","三甲公園","Sanjia Park","120.7065","24.16621","北屯區","Beitun Dist.","旱溪東路三段/景賢南一路口","Sec. 3, Hanxi E. Rd & Jingxian S. 1st Rd Intersection","21","8","2019-11-16 00:07:06"
"3085","北區太平國小","North Tai-Ping Elementary School","120.6816","24.14859","北區","North Dist.","太平路/大誠街口","Taiping Rd & Dacheng St Intersection","10","40","2019-11-16 00:07:06"
"3086","敦化公園","Dunhua Park","120.6675","24.18782","北屯區","Beitun Dist.","后庄七街/敦化路一段口","Houzhuang 7th St & Sec. 1, Dunhua Rd Intersection","38","2","2019-11-16 00:07:06"
"3087","豐原地政事務所","Fengyuan Land Office","120.7144","24.24903","豐原區","Fengyuan Dist.","西安街/興安街口","Xi’an St & Xing’an St Intersection","7","29","2019-11-16 00:07:06"
"3088","內新市場","Neixin Market","120.69","24.11029","大里區","Dali Dist.","中興路二段/東榮路一段口","Sec. 2, Zhongxing Rd & Sec. 1, Dongrong Rd Intersection","13","19","2019-11-16 00:07:06"
"3089","大甲區壘球場","Dajia District Softball Field","120.626","24.35431","大甲區","Dajia Dist.","錦上街/雁門路口","Jinshang St & Yanmen Rd Intersection","11","19","2019-11-16 00:07:06"
"3090","大甲區公所","Dajia District Office","120.6226","24.34981","大甲區","Dajia Dist.","新政路/三民路口","Xinzheng Rd & Sanmin Rd Intersection","12","20","2019-11-16 00:07:06"
"3091","大甲火車站","Dajia Station","120.6269","24.34418","大甲區","Dajia Dist.","中山路一段/蔣公路口","Sec. 1, Zhongshan Rd & Jianggong Rd Intersection","23","39","2019-11-16 00:07:06"
"3092","大甲體育場","Dajia Stadium","120.6158","24.35039","大甲區","Dajia Dist.","大安港路/大安港路53巷口","Da’angang Rd & Ln. 53, Da’angang Rd Intersection","32","2","2019-11-16 00:07:06"
"3093","豐原高中","National Fengyuan Senior High School","120.7417","24.25573","豐原區","Fengyuan Dist.","水源路/水源路129巷口","Shuiyuan Rd & Ln. 129, Shuiyuan Rd Intersection","24","18","2019-11-16 00:07:06"
"3094","一江橋","Yi Jiang Bridge","120.7373","24.13121","太平區","Taiping Dist.","光興路/長龍路一段口","Guangxing Rd & Sec. 1, Changlong Rd Intersection","10","20","2019-11-16 00:07:06"
"3095","新平立體停車場","Xinping Parking Garage","120.7154","24.14903","太平區","Taiping Dist.","中山路三段/樹孝路口","Sec. 3, Zhongshan Rd & Shuxiao Rd Intersection","20","20","2019-11-16 00:07:06"
"3096","樹德停車場","Shude Parking Lot","120.6544","24.11851","南區","South Dist.","德富路146巷/德吉街口","Ln. 146, Defu Rd & Deji St Intersection","32","12","2019-11-16 00:07:06"
"3097","長億公園","Changyi Park","120.7148","24.11776","太平區","Taiping Dist.","永成北路/永成北路151巷口","Yongcheng N. Rd & Ln. 151, Yongcheng N. Rd Intersection","22","14","2019-11-16 00:07:06"
"3098","宜昌兒童公園","Yichang Children's Park","120.7132","24.14442","太平區","Taiping Dist.","十甲路615號對面","No.615, Shijia Rd","16","14","2019-11-16 00:07:06"
"3099","中山醫學大學","Chung Shan Medical University","120.6527","24.12212","南區","South Dist.","建國北路一段/文心南路口","Sec. 1, Jianguo N. Rd & Wenxin S. Rd Intersection","24","22","2019-11-16 00:07:06"
"3100","太平區運動場","Taiping Sadium","120.7205","24.13094","太平區","Taiping Dist.","永平路一段/中興東路口","Sec. 1, Yongping Rd & Zhongxing E. Rd Intersection","22","14","2019-11-16 00:07:06"
"3101","環河公園","Huan He Park","120.674","24.11269","大里區","Dali Dist.","永隆六街/爽文路口","Yonglong 6th St & Shuangwun Rd Intersection","14","16","2019-11-16 00:07:06"
"3102","中興大學附屬高中","The Affiliated High School of NCHU","120.6837","24.10991","大里區","Dali Dist.","益民路二段/益民路二段230巷口","Sec. 2, Yimin Rd & Ln. 230, Sec. 2, Yimin Rd Intersection","21","19","2019-11-16 00:07:06"
"3103","臺中市籃球運動中心","Taichung Basketball Sports Center","120.7118","24.16638","北屯區","Beitun Dist.","景賢六路/景賢南一路口","Jingxian 6th Rd & Jingxian S. 1st Rd Intersection","5","29","2019-11-16 00:07:06"
"3104","東光國小","Dung-Guang Elementary School","120.7024","24.17178","北屯區","Beitun Dist.","東山路一段91巷/東山路一段123巷31弄口","Ln. 91, Sec. 1, Dongshan Rd & ly. 31, Ln. 123, Sec. 1, Dongshan Rd Intersection","23","9","2019-11-16 00:07:06"
"3105","北屯區公所","Beitun District Office","120.6863","24.18299","北屯區","Beitun Dist.","崇德路三段/崇德八路一段口","Sec. 3, Chongde Rd & Sec. 1, Chongde 8th Rd Intersection","12","18","2019-11-16 00:07:06"
"3106","大德公園","Da De Park","120.6721","24.18161","北屯區","Beitun Dist.","平德路/平德路1巷口","Pingde Rd & Ln. 1, Pingde Rd Intersection","9","21","2019-11-16 00:07:06"
"3107","新都生態公園","Sin Dou Ecology Park","120.7301","24.1738","北屯區","Beitun Dist.","軍福十五路/祥順路二段口","Junfu 15th Rd & Sec. 2, Xiangshun Rd Intersection","16","20","2019-11-16 00:07:06"
"3108","楓香公園","Fong Siang Park","120.6287","24.11578","南屯區","Nantun Dist.","楓樹西街/楓樹南街口","Fengshu W. St & Fengshu S. St Intersection","19","14","2019-11-16 00:07:06"
"3109","鎮平公園","Zhen Ping Park","120.6292","24.12057","南屯區","Nantun Dist.","楓樹西街366巷/黎明路一段口","Ln. 366, Fengshu W. St & Sec. 1, Liming Rd Intersection","13","17","2019-11-16 00:07:06"
"3110","豐富公園","Feng Fu Park","120.6533","24.1317","南屯區","Nantun Dist.","東興路一段/文心南五路一段口","Sec. 1, Dongxing Rd & Sec. 1, Wenxin S. 5th Rd Intersection","21","9","2019-11-16 00:07:06"
"3111","五權火車站","Wuquan Railway Station","120.6646","24.12862","南區","South Dist.","建國北路二段100巷/建國北路二段口","Ln. 100, Sec. 2, Jianguo N. Rd & Sec. 2, Jianguo N. Rd Intersection","20","15","2019-11-16 00:07:06"
"3112","江川公園","Jiang Chuan Park","120.6716","24.1244","南區","South Dist.","復興園路/永東街口","Fuxingyuan Rd & Yongdong St Intersection","27","8","2019-11-16 00:07:06"
"3113","樹義公園","Shu Yi Park","120.6551","24.11114","南區","South Dist.","大慶街一段257-3巷/福田三街口","Yonglong 6th St & Shuangwun Rd Intersection","22","10","2019-11-16 00:07:06"
"3114","長青公園","Chang Cing Park","120.6695","24.17187","北區","North Dist.","北平二街/北平路一段口","Beiping 2nd St & Sec. 1, Beiping Rd Intersection","17","23","2019-11-16 00:07:06"
"3115","大忠公園","Da Zhong Park","120.6562","24.14338","西區","West Dist.","精誠三十街/大忠街口","Jingcheng 30th St  & Dazhong St Intersection","20","10","2019-11-16 00:07:06"
"3116","永隆七街永隆路口","Yonglong 7th St./ Yonglong Rd.","120.6761","24.1136","大里區","Dali Dist.","永隆七街/永隆路口","Yonglong 7th St & Yonglong Rd Intersection","20","9","2019-11-16 00:07:06"
"3117","大里運動公園","Dali Sports Park","120.6827","24.10028","大里區","Dali Dist.","國光路一段/大里路口","Sec. 1, Guoguang Rd & Dali Rd Intersection","7","23","2019-11-16 00:07:06"
"3118","國光花市停車場","Guo Guang Flower Market Parking Lot","120.6837","24.10385","大里區","Dali Dist.","德芳南路/德芳南三街口","Defang S. Rd & Defang S. 3rd St Intersection","10","28","2019-11-16 00:07:06"
"3119","德芳南路德芳南一街口","Defang S.Rd./Defang S.1st St.","120.6873","24.10251","大里區","Dali Dist.","德芳南路/德芳南一街口","Defang S. Rd & Defang S. 1st St Intersection","17","18","2019-11-16 00:07:06"
"3120","大甲高中","National Dajia Senior High School","120.6227","24.34222","大甲區","Dajia Dist.","水源路/中山路一段口","Shuiyuan Rd & Sec. 1, Zhongshan Rd Intersection","42","2","2019-11-16 00:07:06"
"3121","樹仁公園","Shu Ren Park","120.6526","24.10885","南區","South Dist.","福田二街/樹義路口","Futian 2nd St & Shuyi Rd Intersection","17","21","2019-11-16 00:07:06"
"3122","樹義園道","Shu Yi Parkway","120.6565","24.11533","南區","South Dist.","工學北路/樹義二街口","Gongxue N. Rd & Shuyi 2nd St Intersection","27","9","2019-11-16 00:07:06"
"3123","中興大學附屬高農","The Affiliated Taichung Senior Agricultural Vocational High School of NCHU","120.6849","24.12861","東區","East Dist.","台中路/建中街口","Taizhong Rd & Jianzhong St Intersection","7","39","2019-11-16 00:07:06"
"3124","四張犁農村公園","Sizhangli Rural Park","120.6822","24.19446","北屯區","Beitun Dist.","四平路/豐樂路二段口","Siping Rd & Sec. 2, Fengle Rd Intersection","7","27","2019-11-16 00:07:06"
"3125","四張犁圖書館","Sizhengli Library","120.6805","24.1947","北屯區","Beitun Dist.","豐樂路二段/豐樂一街口","Sec. 2, Fengle Rd & Fengle 1st St Intersection","17","13","2019-11-16 00:07:06"
"3126","大鵬國小","Da Peng Elementary School","120.6657","24.17811","西屯區","Xitun Dist.","大鵬路/大鵬路59巷口","Dapeng Rd & Ln. 59, Dapeng Rd Intersection","2","36","2019-11-16 00:07:06"
"3127","協和停車場","Sie He Parking Lot","120.6219","24.17754","西屯區","Xitun Dist.","安和西路/福玄路口","Anhe W. Rd & Fuxuan Rd Intersection","4","26","2019-11-16 00:07:06"
"3128","環保公園","Enviornment Park","120.6797","24.10456","大里區","Dali Dist.","德芳路二段/永大街口","Sec. 2, Defang Rd & Yongda St Intersection","20","14","2019-11-16 00:07:06"
"3129","大里圖書館","Dali Library","120.6956","24.08778","大里區","Dali Dist.","中興路一段/中湖路口","Sec. 1, Zhongxing Rd & Zhonghu Rd Intersection","9","29","2019-11-16 00:07:06"
"3130","坪林森林公園","Pinglin Forest Park","120.7284","24.15006","太平區","Taiping Dist.","中山路二段/中山路二段477巷口","Sec. 2, Zhongshan Rd & Ln. 477, Sec. 2, Zhongshan Rd Intersection","18","12","2019-11-16 00:07:06"
"3131","臺中女中","National Taichung Girls' Senior High  School","120.6773","24.13557","西區","West Dist.","自由路一段/康樂街口","Sec. 1, Ziyou Rd & Kangle St Intersection","15","25","2019-11-16 00:07:06"
"3132","臺中市纖維工藝博物館","Museum of Fiber Art, Taichung","120.6871","24.10036","大里區","Dali Dist.","勝利二路口/德芳南一街","Shengli 2nd Rd & Defang S. 1nd St  Intersection","24","12","2019-11-16 00:07:06"
"3133","南平公園","Nan Ping Park","120.6685","24.12469","南區","South Dist.","和昌街/福新街口","Hechang St & Fuxin St Intersection","23","15","2019-11-16 00:07:06"
"3134","西大墩公園","West Da Dun Park","120.6358","24.17692","西屯區","Xitun Dist.","福科一街/福科二路口(西北側)","Fuke 1st St & Fuke 2nd Rd Intersection(NorthWest)","16","20","2019-11-16 00:07:06"
"3135","福科國民中學","Focus Junior High School","120.6138","24.18972","西屯區","Xitun Dist.","西屯路三段/玉門路370巷口","Sec. 3, Xitun Rd & Ln. 370, Yumen Rd Intersection","1","39","2019-11-16 00:07:06"
"3136","潮洋環保公園","Chao Yang Environmental Park","120.6334","24.16592","西屯區","Xitun Dist.","朝貴路/市政北二路口","Chaogui Rd & Shizheng N. 2nd Rd Intersection","26","14","2019-11-16 00:07:06"
"3137","東英停車場","Dongying Parking Lot","120.7021","24.14212","東區","East Dist.","東英九街 / 一心街口","Dongying 9th St & Yixin St Intersection","13","21","2019-11-16 00:07:06"
"3138","大興公園","Da Sing Park","120.6544","24.13526","南屯區","Nantun Dist.","南屯路二段/精誠南路口","Sec. 2, Nantun Rd & Jingcheng S. Rd Intersection","16","16","2019-11-16 00:07:06"
"3139","上安公園","Shang An Park","120.6406","24.17065","西屯區","Xitun Dist.","上安路/上仁街口","Shang’an Rd & Shangren St Intersection","24","16","2019-11-16 00:07:06"
"3140","世斌公園","Shih Bin Park","120.6196","24.18219","西屯區","Xitun Dist.","永福路/福安路88巷口","Yongfu Rd & Ln. 88, Fu’an Rd Intersection","28","4","2019-11-16 00:07:06"
"3141","臺中文化創意產業園區","'Taichung Cultural & Creative Industries  Park'","120.6805","24.13333","南區","South Dist.","復興路三段/民生路口","Sec. 3, Fuxing Rd & Minsheng Rd Intersection","14","36","2019-11-16 00:07:06"
"3142","兒二公園","Children's 2nd Park","120.6169","24.10603","烏日區","Wu Ri Dist.","中山路二段/新興路口","Sec. 2, Zhongshan Rd & Xinxing Rd Intersection","7","23","2019-11-16 00:07:06"
"3143","松竹捷運站","Songzhu MRT Station","120.7014","24.18206","北屯區","Beitun Dist.","松竹路二段/北屯路口","Sec. 2, Songzhu Rd & Beitun Rd Intersection","14","36","2019-11-16 00:07:06"
"3144","三分埔公園","San Fen Pu Park","120.6852","24.17922","北屯區","Beitun Dist.","崇德五路 / 河北東街口","Chongde 5th Rd & Hebei E. St Intersection","17","17","2019-11-16 00:07:06"
"3145","蓬勃運動中心","Pengbo Sports Center","120.6766","24.1764","北屯區","Beitun Dist.","山西路二段/安順北一街口","Sec. 2, Shanxi RD & And hi N. 1st ST Internation","21","21","2019-11-16 00:07:06"
"3146","太原停車場","Taiyuan Parking Lot","120.7215","24.16264","北屯區","Beitun Dist.","太原路三段/建和路一段路口","Sec. 3, Taiyuan Rd & Sec. 1, Jianhe Rd Intersection","6","22","2019-11-16 00:07:06"
"3147","大仁公園","Da Ren Park","120.6593","24.16569","西屯區","Xitun Dist.","甘肅路一段/甘州六街口","Sec. 1, Gansu Rd & Ganzhou 6th St Intersection","26","7","2019-11-16 00:07:06"
"3148","長春兒童公園","Chang Chun Children's Park","120.6914","24.08933","大里區","Dali Dist.","長春路78巷/長春路78巷31弄口","Ln. 78, Changchun Rd & Aly. 31, Ln. 78, Changchun Rd Intersection","21","9","2019-11-16 00:07:06"
"3149","臺灣大道玉門路口","Taiwan Blvd. / Yumen Rd.","120.6097","24.18425","西屯區","Xitun Dist.","臺灣大道四段/玉門路口","Sec. 4, Taiwan Blvd & Yumen Rd Intersection","4","54","2019-11-16 00:07:06"
"3150","國安一號公園","Guoan 1st Park","120.6147","24.19061","西屯區","Xitun Dist.","國安一路/福林路口","Guo’an 1st Rd & Fulin Rd Intersection","14","16","2019-11-16 00:07:06"
"3151","立新國中","Li Shin Junior High School","120.6988","24.10441","大里區","Dali Dist.","立新二街/自立路口","Lixin 2nd St & Zili Rd Intersection","27","5","2019-11-16 00:07:06"
"3152","公館公園","Gong Guan Park","120.6693","24.13239","西區","West Dist.","三民路一段/自由路一段口","Sec. 1, Sanmin Rd & Sec. 1, Ziyou Rd Intersection","23","15","2019-11-16 00:07:06"
"3153","大里區公所","Dali District Office","120.6771","24.09934","大里區","Dali Dist.","新興路/大新街口","Xinxing Rd & Daxin St Intersection","30","2","2019-11-16 00:07:06"
"3154","大明兒童公園","Da Min Children's Park","120.6785","24.11513","大里區","Dali Dist.","大明路366巷/大明路口","Ln. 366, Daming Rd & Daming Rd Intersection","28","8","2019-11-16 00:07:06"
"3155","十九甲健康公園","Shijiujia Jiankang Park","120.6948","24.09988","大里區","Dali Dist.","立元路/甲園街口","Liyuan Rd  & Jiayuan St Intersection","23","7","2019-11-16 00:07:06"
"3156","土庫公園","Tu Ku Park","120.6579","24.13652","西區","West Dist.","五權五街/五權西六街136巷口","Wuquan 5th St & Ln. 136, Wuquan W. 6th St Intersection","19","11","2019-11-16 00:07:06"
"3157","正心兒童公園","Jheng Sin Children's Park","120.65","24.13593","南屯區","Nantun Dist.","大墩南路/文心南二路口","Dadun S. Rd & Wenxin S. 2nd Rd  Intersection","27","13","2019-11-16 00:07:06"
"3158","萬和國中","Wan He Junior High School","120.6396","24.13354","南屯區","Nantun Dist.","文心南三路/豐安街口","Wenxin S. 3rd Rd & Feng’an St Intersection","21","15","2019-11-16 00:07:06"
"3159","復興停車場","Fuxing Parking Lot","120.6763","24.13175","南區","South Dist.","復興路三段/國光路口","Sec. 3, Fuxing Rd & Guoguang Rd Intersection","17","19","2019-11-16 00:07:06"
"3160","樂利公園","Leli Park","120.7075","24.13885","東區","East Dist.","十甲東路/東英六街口","Shijia E. Rd & Dongying 6th St Intersection","21","11","2019-11-16 00:07:06"
"3161","進業公園","Jinye Park","120.7096","24.1463","東區","East Dist.","十甲東路/東英十五街口","Shijia E. Rd & Dongying 15th St Intersection","15","21","2019-11-16 00:07:06"
"3162","霧峰農工","'Wufeng Agricultural And Industrial  Vocational High School'","120.6999","24.07319","霧峰區","Wufeng Dist.","中正路1222號前","No.1222, Zhongzheng Rd","15","29","2019-11-16 00:07:06"
"3163","烏日圖書館","Wuri Library","120.6371","24.10924","烏日區","Wu Ri Dist.","長春街/長春街317巷口","Changchun St & Ln. 317, Changchun St  Intersection","25","7","2019-11-16 00:07:06"
"3164","霧峰區公所","Wufeng District Office","120.7001","24.0615","霧峰區","Wufeng Dist.","大同路/民生路口","Datong Rd  & Minsheng Rd  Intersection","20","16","2019-11-16 00:07:06"
"3165","軍功公園","Jungong Park","120.7198","24.182","北屯區","Beitun Dist.","松竹路一段/軍功路二段口","Sec. 1, Songzhu Rd & Sec. 2, Jungong Rd Intersection","21","9","2019-11-16 00:07:06"
"3166","和福公園","He Fu Park","120.7234","24.17032","北屯區","Beitun Dist.","軍福十路/和福路口","Junfu 10th Rd & Hefu Rd Intersection","23","10","2019-11-16 00:07:06"
"3167","雙十育樂街口","Shuangshi Rd. / Yule St.","120.691","24.15778","北區","North Dist.","雙十路二段/育樂街口","Sec. 2, Shuangshi Rd & Yule St Intersection","22","12","2019-11-16 00:07:06"
"3168","自治公園","Zi Zhi Park","120.6283","24.10188","烏日區","Wu Ri Dist.","公園路/五光路口","Gongyuan Rd & Wuguang Rd Intersection","14","16","2019-11-16 00:07:06"
"3169","曉明公園","Siaoming Park","120.6712","24.16808","北區","North Dist.","陜西東五街/漢陽西街口","Shanxi E. 5th St & Hanyang W. St Intersection","15","17","2019-11-16 00:07:06"
"3170","三信公園","Sanxin Park","120.6637","24.16623","西屯區","Xitun Dist.","漢口路二段/寧漢三街口","Sec. 2, Hankou Rd & Ninghan 3rd St Intersection","17","15","2019-11-16 00:07:06"
"3171","武昌公園","Wuchang Park","120.6682","24.16906","北區","North Dist.","陜西路/武昌路口","Shanxi Rd & Wuchang Rd Intersection","35","5","2019-11-16 00:07:06"
"3172","內新國小","Ne-Shin Elementary School","120.6952","24.11141","大里區","Dali Dist.","日新路/新仁路二段口","Rixin Rd & Sec. 2, Xinren Rd Intersection","29","5","2019-11-16 00:07:06"
"3173","豐田公園","Fengtian Park","120.6967","24.17392","北屯區","Beitun Dist.","遼寧路一段/大連路三段口","Sec. 1, Liaoning Rd & Sec. 3, Dalian Rd Intersection","21","10","2019-11-16 00:07:06"
"3174","經補庫停車場","Jing Bu Ku Parking Lot","120.7318","24.17692","北屯區","Beitun Dist.","東山路一段381-42號對面","No.381-42, Sec. 1, Dongshan Rd","9","21","2019-11-16 00:07:06"
"3175","南苑公園","Nanyuan Park","120.647","24.13212","南屯區","Nantun Dist.","文心南路/文心南五路一段口","Wenxin S. Rd & Sec. 1, Wenxin S. 5th Rd Intersection","22","22","2019-11-16 00:07:06"
"3176","陽明大樓","Taichung City Hall-Yangming Building","120.7212","24.24698","豐原區","Fengyuan Dist.","陽明街/陽明街66巷口","Yangming St & Ln. 66, Yangming St Intersection","20","20","2019-11-16 00:07:06"
"3177","萬和宮","Wan He Temple","120.639","24.13768","南屯區","Nantun Dist.","萬和路一段/文昌街口","Sec. 1, Wanhe Rd & Wenchang St Intersection","31","9","2019-11-16 00:07:06"
"3178","仁美公園","Ren Mei Park","120.6861","24.19044","北屯區","Beitun Dist.","崇德路三段/崇德十二路口","Sec. 3, Chongde Rd & Chongde 12th Rd Intersection","15","21","2019-11-16 00:07:06"
"3179","梅川園道","Meichuan Parkway","120.6766","24.16158","北區","North Dist.","梅川東路三段/尚德街127巷口","'Sec. 3, Meichuan E. Rd  & Ln. 127, Shangde St Intersection'","19","11","2019-11-16 00:07:06"
"3180","中平公園","Zhongping Park","120.7207","24.12079","太平區","Taiping Dist.","中平九街/太平路176巷口","Zhongping 9th St & Ln. 176, Taiping Rd Intersection","18","18","2019-11-16 00:07:06"
"3181","旱溪停車場","Han Xi Parking Lot","120.7092","24.14082","東區","East Dist.","旱溪街/德興一街口","Hanxi St & Dexing 1st St Intersection","22","8","2019-11-16 00:07:06"
"3182","國光公園(二二八廣場)","Guoguang Park (228 Plaza)","120.6767","24.1165","大里區","Dali Dist.","興大南街/永隆街口","Xingda S. St  & Yonglong Rd Intersection","16","20","2019-11-16 00:07:06"
"3183","文心國小","Wunsin Elementary School","120.6818","24.1732","北屯區","Beitun Dist.","綏遠路二段/文心路四段口","Sec. 2, Suiyuan Rd & Sec. 4, Wenxin Rd Intersection","30","14","2019-11-16 00:07:06"
"3184","消防公園","Fire Park","120.7132","24.26208","豐原區","Fengyuan Dist.","仁洲街/豐原大道七段口","Renzhou St & Sec. 7, Fengyuan Blvd Intersection","25","7","2019-11-16 00:07:06"
"3185","進士公園","Jinshi Park","120.6747","24.1026","大里區","Dali Dist.","爽文路/德芳路三段口","Shuangwen Rd & Sec. 3, Defang Rd Intersection","19","11","2019-11-16 00:07:06"
"3186","黎光公園","Liguang Park","120.6305","24.15187","南屯區","Nantun Dist.","干城街/懷德街口","Gancheng St & Huaide St Intersection","14","20","2019-11-16 00:07:06"
"3187","保安公園","Baoan Park","120.6122","24.14725","南屯區","Nantun Dist.","文山五街/保安五街口","Wenshan 5th St  &  Bao’an 5th St Intersection","24","28","2019-11-16 00:07:06"
"3188","景美公園","Jingmei Park","120.711","24.17818","北屯區","Beitun Dist.","旱溪東路三段/軍福十八路口","Sec. 3, Hanxi E. Rd & Junfu 18th Rd Intersection","15","34","2019-11-16 00:07:06"
"3189","清水牛罵頭停車場","Qingshui Niumatou Parking Lot","120.5742","24.26851","清水區","Qingshui Dist.","光華路/光華路137巷口","Guanghua Rd & Ln. 137, Guanghua Rd Intersection","20","10","2019-11-16 00:07:06"
"3190","豐原國中","Fong Yuan Junior High School","120.7197","24.26123","豐原區","Fengyuan Dist.","三豐路一段/豐北街口","Sec. 1, Sanfeng Rd & Fengbei St Intersection","14","26","2019-11-16 00:07:06"
"3191","春社公園","Chunshe Park","120.6105","24.14051","南屯區","Nantun Dist.","永春路/永春北路口","Yongchun Rd  & Yongchun N. Rd Intersection","34","18","2019-11-16 00:07:06"
"3192","新興國小","Xin Xing Elementary School","120.6622","24.19443","北屯區","Beitun Dist.","新興路/同榮路7巷口","Xinxing Rd & Ln. 7, Tongrong Rd  Intersection","24","11","2019-11-16 00:07:06"
"3193","豐原區公所","Fengyuan District Office","120.7183","24.24243","豐原區","Fengyuan Dist.","市政路/育仁路口","Shizheng Rd & Yuren Rd  Intersection","24","8","2019-11-16 00:07:06"
"3194","南陽公園","Nanyang Park","120.7253","24.24111","豐原區","Fengyuan Dist.","永康路/永康路211巷口","Yongkang Rd  & Ln. 211, Yongkang Rd Intersection","39","1","2019-11-16 00:07:06"
"3195","崇倫國中","Chung-Lun Junior High School","120.6574","24.13259","南區","South Dist.","忠明南路/ 南屯路一段口(崇倫公園南側入口處)","Zhongming S. Rd  & Sec. 1, Nantun Rd Intersection(South Side Chung-Lun Park )","16","14","2019-11-16 00:07:06"
"3196","進化廣場","Jinhua Square","120.6933","24.15525","北區","North Dist.","興進路/育興街口","Xingjin Rd / Yuxing St Intersection","20","14","2019-11-16 00:07:06"
"3197","青年公園","Youth Park","120.6936","24.08492","大里區","Dali Dist.","公園街/公園街421巷口","Gongyuan St & Ln. 421, Gongyuan St  Intersection","15","15","2019-11-16 00:07:06"
"3198","臺灣大道福林路口","Taiwan Blvd. / Fulin Rd.","120.6138","24.18361","西屯區","Xitun Dist.","臺灣大道四段/福林路口","Sec. 4, Taiwan Blvd & Fulin Rd Intersection","26","2","2019-11-16 00:07:06"
"3199","新光國小","Shin Kang Elementary School","120.707","24.15943","太平區","Taiping Dist.","新興路/新福路口","Xinxing Rd & Xinfu Rd Intersection","24","11","2019-11-16 00:07:06"
"3200","?興公園","Busing Park","120.7207","24.15934","北屯區","Beitun Dist.","樹孝路/太順路口","Shuxiao Rd & Taishun Rd Intersection","25","10","2019-11-16 00:07:06"
"3201","進德國小","Jin De Elementary School","120.6943","24.14607","東區","East Dist.","進化路/福明街口","Jinhua Rd & Fuming St Intersection","19","13","2019-11-16 00:07:06"
"3202","潭子國小","Tanzi Elementary School","120.7049","24.21325","潭子區","Tanzi Dist.","中山路二段391巷/中山路二段口","Ln. 391, Sec. 2, Zhongshan Rd & Sec. 2, Zhongshan Rd Intersection","25","23","2019-11-16 00:07:06"
"3203","松竹國小","Song Jhu Elementary School","120.6905","24.18041","北屯區","Beitun Dist.","崇德六路一段/昌平路二段4巷口","Sec. 1, Chongde 6th Rd & Ln. 4, Sec. 2, Changping Rd Intersection","30","6","2019-11-16 00:07:06"
"3204","老樹公園","Laoshu Park","120.6623","24.18259","北屯區","Beitun Dist.","經貿一路/順平路口","Jingmao 1st Rd & Chenping Rd Intersection","18","12","2019-11-16 00:07:06"
"3205","健康公園附設停車場","JianKang Park Parking Lot","120.6699","24.12096","南區","South Dist.","五權南路/五權南路380巷(西北側)","Wuquan S. Rd & Ln. 380, Wuquan S. Rd Intersection(North West)","14","22","2019-11-16 00:07:06"
"3206","臺中市港區藝術中心","Taichung City Seaport Art Center","120.5579","24.26935","清水區","Qingshui Dist.","鎮政路/忠貞路口","Zhenzheng Rd & Zhongzhen Rd Intersection","17","19","2019-11-16 00:07:06"
"3207","烏日區公所","Wuri District Office","120.6236","24.10461","烏日區","Wu Ri Dist.","新興路/光日路口","Xinxing Rd & Guangri Rd Intersection","8","25","2019-11-16 00:07:06"
"3208","清水運動場","Qingshui Gymnasium","120.5588","24.27824","清水區","Qingshui Dist.","五權路/五權二街口","Wuquan Rd & Wuquan 2st St Intersection","18","12","2019-11-16 00:07:06"
"3209","軍功國小","Jyun Gong Elementary School","120.719","24.17294","北屯區","Beitun Dist.","軍功路一段/軍福十三路口","Sec. 1, Jungong Rd  & Junfu 13th Rd Intersection","20","10","2019-11-16 00:07:06"
"3210","南屯區公所","Nantun District Office","120.6445","24.13467","南屯區","Nantun Dist.","永春東路/永春東路515巷","Yongchun E. Rd & Ln. 515, Yongchun E. Rd Intersection","13","18","2019-11-16 00:07:06"
"3211","長福公園","Changfu Park","120.702","24.14402","東區","East Dist.","長福路/旱溪東路一段口","Changfu Rd / Sec. 1, Hanxi E. Rd Intersection","9","21","2019-11-16 00:07:06"
"3212","臺中加工出口區","Taichung Export Processing Zone","120.7054","24.21707","潭子區","Tanzi Dist.","中山路二段/南環路口","Sec. 2, Zhongshan Rd & Nanhuan Rd Intersection","8","24","2019-11-16 00:07:06"
"3213","立法院中部辦公室","Central Region Office, The Legislative Yuan","120.6974","24.05584","霧峰區","Wufeng Dist.","中正路/蘭生街口","Zhongzheng Rd & Lansheng St Intersection","8","24","2019-11-16 00:07:06"
"3214","臺中轉運站","Taichung Bus Station","120.6876","24.13887","東區","East Dist.","八德街/武德街口(停車場東南側)","Bade St & Wude St Intersection(Southeast Side Parking Lot)","20","32","2019-11-16 00:07:06"
"3215","臺中市議會","Taichung City Council","120.644","24.15805","西屯區","Xitun Dist.","市政北一路/惠文路口","Shizheng N. 1st Rd & Huiwen Rd Intersection","22","11","2019-11-16 00:07:06"
"3216","五權西忠明南路口","Wuquan W./ Zhongming S.","120.6571","24.13977","西區","West Dist.","五權西路一段/忠明南路口","Sec. 1, Wuquan W. Rd & Zhongming S. Rd Intersection","22","10","2019-11-16 00:07:06"
"3217","高美濕地第一停車場","Gaomei Wetlands 1st Parking","120.5464","24.30252","清水區","Qingshui Dist.","高美路/美堤街口","Gaomei Rd & Meiti St Intersection","32","18","2019-11-16 00:07:06"
"3218","高美濕地第二停車場","Gaomei Wetlands 2nd Parking","120.5441","24.2956","清水區","Qingshui Dist.","臨港路六段100號(北側)","No.100, Sec. 6, Lingang Rd (North)","23","15","2019-11-16 00:07:06"
"3219","美術館園道","Art Museum Parkway","120.6629","24.13508","西區","West Dist.","五權七街/五權西四街口","Wuquan 7th St & Wuquan W. 4th St Intersection","16","18","2019-11-16 00:07:06"
"3220","烏日國小","Wurih Elementary School","120.6233","24.10829","烏日區","Wu Ri Dist.","平等路/憬學街口","Pingdeng St & Jingxue St Intersection","12","24","2019-11-16 00:07:06"
"3221","長青活動中心","Chang Cing Activity Center","120.627","24.34069","大甲區","Dajia Dist.","水源路/甲東路口","Shuiyuan Rd & Jiadong Rd Intersection","19","13","2019-11-16 00:07:06"
"3222","文昌國小","Wenchang Elementary School","120.6242","24.34761","大甲區","Dajia Dist.","育德路/民生路口","Yude Rd & Minsheng Rd Intersection","10","26","2019-11-16 00:07:06"
"3223","順天國小","Shuen Tian Elementary School","120.6175","24.34415","大甲區","Dajia Dist.","經國路/新美街口","Jingguo Rd & Xinmei St Intersection","21","15","2019-11-16 00:07:06"
"3224","文修公園","Wen Xiu Park","120.642","24.18234","西屯區","Xitun Dist.","福星路/烈美街口","Fuxing Rd & Liemei St Intersection","19","16","2019-11-16 00:07:06"
"3225","北屯國小","Bei Tun Elementary School","120.6908","24.16416","北屯區","Beitun Dist.","國校巷/北興街口","Guoxiao Ln & Beixing St Intersection","14","16","2019-11-16 00:07:06"
"3226","上德公園","Shang De Park","120.6445","24.16931","西屯區","Xitun Dist.","智惠街/上石路口","Shang De Park","17","15","2019-11-16 00:07:06"
"3227","屯區藝文中心","Taichung City Tun District Art Center","120.7337","24.1566","太平區","Taiping Dist.","長安東路/長安路口","Chang’an E. Rd & Chang’an Rd Intersection","21","9","2019-11-16 00:07:06"
"3228","益民國小","Yi-Min Elementary School","120.6867","24.10674","大里區","Dali Dist.","益民路二段/益民路二段81巷口","Ln. 171, Sec. 2 & Ln. 81, Sec. 2, Yimin Rd Intersection","21","9","2019-11-16 00:07:06"
"3229","文心南六大墩南路口","Wenxin S.6th Rd./Dadun S. Rd","120.6492","24.13082","南屯區","Nantun Dist.","文心南六路/文心南六路171巷口","Wenxin S. 6th Rd & Ln. 171, Wenxin S. 6th Rd Intersection","8","26","2019-11-16 00:07:06"
"3230","國安國小","Guo An Elementary School","120.6071","24.19398","西屯區","Xitun Dist.","東大路一段/國安一路口","Sec. 1, Dongda Rd & Guo’an 1st Rd Intersection","18","14","2019-11-16 00:07:06"
"3231","823紀念公園","823 Memorial Park","120.6879","24.18695","北屯區","Beitun Dist.","崇德九路/昌平東二路口","Chongde 9th Rd & Changping E. 2nd Rd Intersection","25","11","2019-11-16 00:07:06"
"3232","祥和公園","Xiang He Park","120.7232","24.16547","北屯區","Beitun Dist.","軍福七路/建和路一段口","Junfu 7th Rd & Sec. 1, Jianhe Rd Intersection","23","7","2019-11-16 00:07:06"
"3233","國立中興大學(中興湖)","National Chung Hsing University( Chung Hsing lake)","120.6737","24.12043","南區","South Dist.","中興路/弘道路口(國立中興大學(中興湖))","'Zhongxing Rd & Hongdao  Rd Intersection(National Chung Hsing University( Chung Hsing lake))'","15","37","2019-11-16 00:07:06"
"3234","新泰安火車站","Tai'an Railway Station","120.7416","24.33059","后里區","Houli Dist.","福安路/安眉路口","Fu’an Rd & Anmei Rd Intersection","16","14","2019-11-16 00:07:06"
"3235","泰安鐵道文化園區","Taian Railway Cultural Park","120.748","24.32256","后里區","Houli Dist.","福興路/安眉路口","Fuxing Rd & Anmei Rd Intersection","3","27","2019-11-16 00:07:06"
"3236","大慶火車站","Daqing Railway Station","120.6475","24.11859","南區","South Dist.","建國南路一段/大慶街二段口","Sec. 1, Jianguo S. Rd. & Sec. 2, Daqing St. Intersection","43","21","2019-11-16 00:07:06"
"3237","潭子火車站","Tanzi Railway Station","120.706","24.2116","潭子區","Tanzi Dist.","潭興路二段/中山路二段口","Sec. 2, Tanxing Rd & Sec. 2, Zhongshan Rd Intersection","7","27","2019-11-16 00:07:06"
"3238","社皮公園","Shepi Park","120.7047","24.24451","豐原區","Fengyuan Dist.","西勢一街/社興五街口","Xishi 1st St & Shexing 5th St Intersection","28","4","2019-11-16 00:07:06"
"3239","臺中特殊教育學校","Taichung Special Education School","120.6426","24.15139","南屯區","Nantun Dist.","大觀路/公益路二段口","Daguan Rd & Sec. 2, Gongyi Rd Intersection","14","16","2019-11-16 00:07:06"
"3240","潭秀國中","Tan Show Junior High School","120.7003","24.21615","潭子區","Tanzi Dist.","雅潭路一段/勝利路口","Sec. 1, Yatan Rd & Shengli Rd Intersection","16","12","2019-11-16 00:07:06"
"3241","富春國小","Fu Chuen Elementary School","120.7129","24.25164","豐原區","Fengyuan Dist.","豐西街/瑞安街口","Fengxi St & Rui’an St  Intersection","15","15","2019-11-16 00:07:06"
"3242","犁頭店公園","Litoudian Park","120.6406","24.14234","南屯區","Nantun Dist.","惠中路三段/大墩四街口","Sec. 3, Huizhong Rd & Dadun 4th St Intersection","20","20","2019-11-16 00:07:06"
"3244","三和派出所","Sanhe Police Station","120.6033","24.1081","烏日區","Wu Ri Dist.","三榮八路/三榮北一路口","Sanrong 8th Rd & Sanrong N. 1st Rd Intersection","20","10","2019-11-16 00:07:06"
"3245","旭光國小","Shiukuang Elementary School","120.5941","24.11109","烏日區","Wu Ri Dist.","健行路/榮泉路口","Jianxing Rd & Rongquan Rd Intersection","16","14","2019-11-16 00:07:06"
"3246","東光園大智路口","Dongguangyuan Rd. / Dazhi Rd.","120.6907","24.12473","東區","East Dist.","東光園路/大智路口","Dongguangyuan Rd & Dazhi Rd Intersection","19","11","2019-11-16 00:07:06"
"3247","東成東成二街口","Dongcheng Rd./ Dongcheng 2th St.","120.7013","24.15711","北區","North Dist.","東成路/東成二街口","Dongcheng Rd & Dongcheng 2nd St Intersection","23","9","2019-11-16 00:07:06"
"3248","軍福公園","Junfu Park","120.7149","24.18006","北屯區","Beitun Dist.","軍福十九路/軍榮五街口","Junfu 19th Rd & Junrong 5th St Intersection","17","12","2019-11-16 00:07:06"
"3249","東福公園","Dongfu Park","120.704","24.13421","東區","East Dist.","長福路/東英一街口","Changfu Rd & Dongying 1st St Intersection","13","17","2019-11-16 00:07:06"
"3250","瑞城國小","Ruei Cheng Elementary School","120.702","24.08611","大里區","Dali Dist.","瑞城一街/美村街口","Ruicheng 1st St & Meicun St Intersection","28","2","2019-11-16 00:07:06"
"3251","文心崇德路口","Sec.4 Wenxin Rd./Sec.2 Chongde Rd.","120.6858","24.17198","北屯區","Beitun Dist.","文心路四段/崇德路二段口","Sec. 4, Wenxin Rd & Sec. 2, Chongde 2nd Rd Intersection","9","33","2019-11-16 00:07:06"
"3252","臺中至善公園","Taichung Zhishan Park","120.6421","24.17492","西屯區","Xitun Dist.","至善路/逢甲路235巷口","Zhishan Rd & Ln. 235, Fengjia Rd Intersection","16","24","2019-11-16 00:07:06"
"3253","東光園振興路口","Dongguangyuan Rd./Zhenxing Rd.","120.6971","24.13333","東區","East Dist.","東光園路/振興路口","Dongguangyuan Rd & Zhenxing Rd Intersection","9","21","2019-11-16 00:07:06"
"3254","大甲高工","Dajia Industrial High School","120.6397","24.34661","大甲區","Dajia Dist.","開元路71號(西南側)","No.71, Kaiyuan Rd (South West)","47","13","2019-11-16 00:07:06"
"3255","光德國中","Guang De Junior High School","120.6406","24.10539","烏日區","Wu Ri Dist.","信義街/僑仁街口","Xinyi St & Qiaoren St Intersection","19","11","2019-11-16 00:07:06"
"3256","沙鹿區公所","Shalu District Office","120.5659","24.23392","沙鹿區","Shalu Dist.","鎮政路/鎮南路二段口","Zhenzheng Rd & Sec. 2, Zhennan Rd Intersection","15","15","2019-11-16 00:07:06"
"3257","塗城里活動中心","Tucheng Community Center","120.722","24.08655","大里區","Dali Dist.","塗城路/塗成路33巷口","Tucheng Rd & Ln. 33, Tucheng Rd Intersection","9","11","2019-11-16 00:07:06"
"3258","大明國小","Da Ming Elementary School","120.6431","24.22857","大雅區","Daya Dist.","中清路四段/雅環路三段口","Sec. 4, Zhongqing Rd & Sec. 3, Yahuan Rd Intersection","5","25","2019-11-16 00:07:06"
"3259","大華國中","Dahwa Junior High School","120.6495","24.21543","大雅區","Daya Dist.","中清路三段/學府路口","Sec. 3, Zhongqing Rd & Xuefu Rd Intersection","25","13","2019-11-16 00:07:06"
"3260","大雅國中","Daya Junior High School","120.6495","24.22432","大雅區","Daya Dist.","學府路/學府路市場巷口","Xuefu Rd & Market Ln, Xuefu Rd Intersection","7","23","2019-11-16 00:07:06"
"3261","高美濕地","Gaomei Wetland","120.5502","24.31034","清水區","Qingshui Dist.","高美路/美堤街口(木棧道內)","'Gaomei Rd & Meiti St Intersection ( Wooden Walkway)'","29","50","2019-11-16 00:07:06"
"3262","大雅公園","Daya Park","120.6471","24.22345","大雅區","Daya Dist.","中清路三段1132巷/中清路三段口","Ln. 1132, Sec. 3, Zhongqing Rd & Sec. 3, Zhongqing Rd Intersection","21","9","2019-11-16 00:07:06"
"3263","樂成宮","Le Cheng Temple","120.6967","24.14059","東區","East Dist.","東光路/旱溪街口","Dongguang Rd & Hanxi St Intersection","7","23","2019-11-16 00:07:06"
"3264","青海公園","Qinghai Park","120.6535","24.16421","西屯區","Xitun Dist.","四川五街/四川東街口","Sichuan 5th St & Sichuan E. St Intersection","19","15","2019-11-16 00:07:06"
"3265","新建國市場(1號門)","New Jianguo Market (Gate 1)","120.6958","24.13496","東區","East Dist.","樂業二路/建成路口","Leye 2nd Rd & Jiancheng Rd Intersection","18","14","2019-11-16 00:07:06"
"3266","外埔區公所","Waipu District Office","120.6546","24.33212","外埔區","Waipu Dist.","六分路/甲后路三段口","Liufen Rd & Sec. 3, Jiahou Rd Intersection","16","14","2019-11-16 00:07:06"
"3267","臺中火車站(復興路)","Taichung Railway Station(Fuxing Rd.)","120.6863","24.136","東區","East Dist.","復興路四段/復興路四段149巷口","Sec. 4, Fuxing Rd & Ln. 149, Sec. 4, Fuxing Rd Intersection","28","50","2019-11-16 00:07:06"
"3268","北區國民運動中心","North District Civil Sports Center","120.6848","24.15716","北區","North Dist.","崇德路一段/美德街口","Sec. 1, Chongde Rd & Meide St Intersection","13","19","2019-11-16 00:07:06"
"3269","高登公園","Gaodeng Park","120.6657","24.17106","西屯區","Xitun Dist.","重慶路/漢成街口","Chongqing Rd & Hancheng St Intersection","19","7","2019-11-16 00:07:06"
"3270","新建國市場(5號門)","New Jianguo Market (Gate 5)","120.6939","24.13401","東區","East Dist.","進德路/建成路口","Jinde Rd & Jiancheng Rd Intersection","8","20","2019-11-16 00:07:06"
"3271","大源公園","Dayuan Park","120.7229","24.14222","太平區","Taiping Dist.","大源十八街/環太東路口","Dayuan 18th St & Huantai E. Rd Intersection","22","8","2019-11-16 00:07:06"
"3272","寶覺禪寺","Bao Jue Temple","120.688","24.15903","北區","North Dist.","健行路/金龍街口","Jianxing Rd & Jinlong St Intersection","14","22","2019-11-16 00:07:06"
"3273","安和國中","AnHer Junior High School","120.6172","24.17396","西屯區","Xitun Dist.","天助街/中工三路口","Tianzhu St & Zhonggong 3rd Rd Intersection","20","10","2019-11-16 00:07:06"
"3274","春安國小","Chun An Elementary School","120.6087","24.13454","南屯區","Nantun Dist.","春安路/春安二街口","Chun’an Rd.& Chun’an 2nd St. Intersection","20","10","2019-11-16 00:07:06"
"3275","日南火車站","Rinan Railway Station","120.654","24.3781","大甲區","Dajia Dist.","中山路二段140巷口/中山路二段口","Ln. 140, Sec. 2, Zhongshan Rd & Sec. 2, Zhongshan Rd Intersection","18","18","2019-11-16 00:07:06"
"3276","外埔國中","Wai Pu Junior High School","120.6508","24.33218","外埔區","Waipu Dist.","外埔路/水美路口","Waipu Rd & Shuimei Rd Intersection","14","16","2019-11-16 00:07:06"
"3277","水安公園","Shueian Park","120.6467","24.15394","南屯區","Nantun Dist.","文心路一段/大業路口","Wenxin Rd. Section & Daye Rd. Intersection","29","21","2019-11-16 00:07:06"
"3278","大智路停車場","Dazhi Road Parking Lot","120.534","24.25991","梧棲區","Wuqi Dist.","大智路二段388號旁","Next to No. 388, Section 2, Dazhi Rd.","13","17","2019-11-16 00:07:06"
"3279","四育國中","Sz Yu Junior High School","120.6649","24.126","南區","South Dist.","復興路二段/文林街口","Sec. 2, Fuxing Rd & Wenlin St Intersection","28","18","2019-11-16 00:07:06"
"3280","東新國小","Tung-Shing Elementary School","120.8276","24.26017","東勢區","Dongshi Dist.","勢林街/勢林街104巷口","Shilin St & Ln. 104, Shilin St Intersection","9","21","2019-11-16 00:07:06"
"3281","三民街停車場","Sanmin Street Parking Lot","120.8307","24.25244","東勢區","Dongshi Dist.","三民街/中新街20巷口","Sanmin St & Ln. 20, Zhongxin St Intersection","20","12","2019-11-16 00:07:06"
"3282","圳前仁愛公園","Zunqian Ren'ai Park","120.6487","24.25826","神岡區","Shengang Dist.","中山路/中山路1720巷口","Zhongshan Rd & Ln. 1720, Zhongshan Rd Intersection","22","8","2019-11-16 00:07:06"
"3283","后里東站","Houli Railway Station (East)","120.7336","24.30901","后里區","Houli Dist.","臺中花博后里東站接駁站內(甲后路1號東側)","Taichung Flora Exposition Houli East Station Connection station(East Side Of No.1, Jiahou Rd., Houli Dist.)","17","43","2019-11-16 00:07:06"
"3284","圓環北大昌街口","Yuanhuan N. Rd./Dachang St.","120.7167","24.25659","豐原區","Fengyuan Dist.","圓環北路一段/大昌街口","Sec. 1, Yuanhuan N. Rd & Dachang St Intersection","16","13","2019-11-16 00:07:06"
"3285","圓環西中山路口","Yuanhuan W. Rd./Zhongshan Rd.","120.7126","24.25586","豐原區","Fengyuan Dist.","圓環西路/中山路口","Yuanhuan W. Rd./Zhongshan Rd.","28","12","2019-11-16 00:07:06"
"3286","天祥停車場","Tianxiang Parking Lot","120.6949","24.16129","北屯區","Beitun Dist.","天祥街/北屯路50巷1弄口","Tianxiang St & Aly. 1, Ln. 50, Beitun Rd Intersection","22","16","2019-11-16 00:07:06"
"3287","光大公園","Guangda Park","120.5653","24.24384","沙鹿區","Shalu Dist.","光大路/光華路口","Guangda Rd & Guanghua Rd Intersection","13","17","2019-11-16 00:07:06"
"3288","中山光華路口","Zhongshan Rd./Guanghua Rd.","120.5642","24.23736","沙鹿區","Shalu Dist.","中山路/光華路口","Zhongshan Rd & Guanghua Rd Intersection","20","18","2019-11-16 00:07:06"
"3289","中山路四平街口","Zhongshan Rd./Sihping St.","120.5609","24.23781","沙鹿區","Shalu Dist.","中山路/四平街口","Zhongˋshan Rd & Siping St Intersection","17","13","2019-11-16 00:07:06"
"3290","何厝公園","Hecuo Park","120.6549","24.16061","西屯區","Xitun Dist.","台灣大道二段740巷2弄/何厝街6巷口","Aly. 2, Ln. 740, Sec. 2, Taiwan Blvd & Ln. 6, Hecuo St Intersection","15","17","2019-11-16 00:07:06"
"3291","慈濟公園","Cihji Park","120.7331","24.2579","豐原區","Fengyuan Dist.","豐勢路一段/豐東路口","Sec. 1, Fengshi Rd & Fengdong Rd Intersection","9","21","2019-11-16 00:07:06"
"3292","民生英才路口","Minsheng Rd./Yingcai Rd.","120.6648","24.14435","西區","West Dist.","民生路/英才路口","Minsheng Rd & Yingcai Rd Intersection","14","32","2019-11-16 00:07:06"
"3293","高工南和路口","Gaogong Rd./Nanhe Rd.","120.6683","24.11456","南區","South Dist.","高工路/南和路口","Gaogong Rd & Nanhe Rd Intersection","20","12","2019-11-16 00:07:06"
"3294","東勢國小","Tungshih Elementary School","120.8293","24.25885","東勢區","Dongshi Dist.","三民街/中興街口","Sanmin St & Zhongxing St Intersection","8","22","2019-11-16 00:07:06"
"3295","北新國中","Pei Hsin Junior High School","120.6967","24.17888","北屯區","Beitun Dist.","遼寧路一段/僑孝街110巷口","Sec. 1, Liaoning Rd & Ln. 110, Qiaoxiao St Intersection","15","14","2019-11-16 00:07:06"
"3296","潭子環保公園","Tanzi Environmental Park","120.7088","24.20462","潭子區","Tanzi Dist.","合作街38巷/合作街38巷76弄口","Ln. 38, Hezuo St. Tanzi Dist. & Aly. 76, Ln. 38, Hezuo St., Tanzi Dist.Intersection","19","11","2019-11-16 00:07:06"
"3297","中清文心路口","Zhongqing Rd. /Wensin Rd.","120.6703","24.17344","北區","North Dist.","文心路三段999號對面人行道","Sidewalk opposite No. 999, Section 3, Wenxin Rd.","28","33","2019-11-16 00:07:06"
"3298","新社高中","Shinshe Senior High School","120.8072","24.23932","新社區","Xinshe Dist.","中和街三段國中巷10號(北側)","No.10, Guozhong Ln., Sec. 3, Zhonghe St (North)","12","18","2019-11-16 00:07:06"
"3299","新社區公所","Xinshe District Office","120.8085","24.23386","新社區","Xinshe Dist.","興社街二段28之1號(東側)","No.28-1, Sec. 2, Xingshe St (East)","8","22","2019-11-16 00:07:06"
"3300","梧棲國小","Wu-qi Elementary School","120.5301","24.25359","梧棲區","Wuqi Dist.","文化路二段/民生街口","Sec. 2, Wenhua Rd & Minsheng St Intersection","21","19","2019-11-16 00:07:06"
"3301","崇光國小","Chong-Guang Elementary School","120.684","24.11477","大里區","Dali Dist.","益民路二段/益民路二段371巷口","Yimin Rd.& Ln. 371, Sec. 2, Yimin Rd. Intersection","13","17","2019-11-16 00:07:06"
"3302","梧棲區公所","Wuqi District Office","120.5315","24.25492","梧棲區","Wuqi Dist.","中和街/雲集街口","Zhonghe St & Yunji St Intersection","14","14","2019-11-16 00:07:06"
"3303","秀泰廣場","Show Time Square","120.6913","24.1401","東區","East Dist.","南京路/自由三街口","Nanjing Rd & Ziyou 3rd St Intersection","23","16","2019-11-16 00:07:06"
"3304","大肚戶政事務所","DaDu District Household Registration Office","120.5444","24.15446","大肚區","Dadu Dist.","華山路/沙田路三段口","Huashan Rd & Sec. 3, Shatian Rd Intersection","14","16","2019-11-16 00:07:06"
"3305","大肚火車站","Dadu Railway Station","120.5427","24.15414","大肚區","Dadu Dist.","華山路/平和街口","Huashan Rd & Pinghe St  Intersection","19","13","2019-11-16 00:07:06"
"3306","動態公園","Dynamic Park","120.5414","24.1539","大肚區","Dadu Dist.","大明二街/大德六街口","Daming 2nd St & Dade 6th St Intersection","16","14","2019-11-16 00:07:06"
"3307","沙鹿高工","Sha-Lu Industrial Senior High School","120.5658","24.23888","沙鹿區","Shalu Dist.","台灣大道七段/光華路口","Sec. 7, Taiwan Blvd & Guanghua Rd Intersection","30","12","2019-11-16 00:07:06"
"3308","大弘公園","Dahong Park","120.6613","24.1628","西屯區","Xitun Dist.","太原路一段/大弘六街口","Sec. 1, Taiyuan Rd & Dahong 6th St Intersection","18","16","2019-11-16 00:07:06"
"3309","神岡國中","Sangkung Junior High School","120.6815","24.24723","神岡區","Shengang Dist.","中山路/中山路652巷口","Zhongshan Rd & Ln. 652, Zhongshan Rd Intersection","23","7","2019-11-16 00:07:06"
"3310","惠來停車場","Huilai Parking Lot","120.6396","24.15993","西屯區","Xitun Dist.","惠來路二段/市政北一路口","Sec. 2, Huilai Rd & Shizheng N. 1st Rd Intersection","20","14","2019-11-16 00:07:06"
"3311","石岡區公所","Shigang District Office","120.7805","24.27508","石岡區","Shigang Dist.","豐勢路1033號(北側)","No.1033, Fengshi Rd (North)","14","15","2019-11-16 00:07:06"
"3312","大安國小","Daan Elementary School","120.5872","24.34547","臺中市大安區","Taichung City Da’an Dist.","中山南路/中山南路304巷口","Zhongshan S. Rd & Ln. 304, Zhongshan S. Rd Intersection","17","11","2019-11-16 00:07:06"
"3313","潭子聯合辦公大樓","Tanzi Joint Office Building","120.7227","24.20382","潭子區","Tanzi Dist.","豐興路二段/潭興路一段口","Sec. 2, Fengxing Rd & Sec. 1, Tanxing Rd Intersection","14","16","2019-11-16 00:07:06"
"3314","谷關立體停車場","Guguan Parking Garage","121.0054","24.20292","和平區","Heping Dist.","東關路一段/東關路一段分校巷口","Sec. 1, Dongguan Rd & Fenxiao Ln., Sec. 1, Dongguan Rd Intersection","9","21","2019-11-16 00:07:06"
"3315","海墘國小","Hai Chian Elementary School","120.5884","24.37892","臺中市大安區","Taichung City Da’an Dist.","大安港路/大安港路1079巷口","Da’angang Rd.& Ln. 1079, Da’angang Rd.Intersection","16","14","2019-11-16 00:07:06"
"3316","后里運動公園","Houli Sports Park","120.7177","24.30637","后里區","Houli Dist.","成功路/文明路口","Chenggong Rd & Wenming Rd Intersection","7","22","2019-11-16 00:07:06"
"3317","龍井火車站","Longjing Railway Station","120.5437","24.19805","龍井區","Longjing Dist.","龍新路/龍新路3巷口","Longsin Rd. & Ln.3 Longsin Rd.","15","17","2019-11-16 00:07:06"
"3318","龍井圖書館","Longjing Library","120.5451","24.19213","龍井區","Longjing Dist.","觀光路/沙田路四段口","Guanguang Rd & Sec. 4, Shatian Rd Intersection","20","9","2019-11-16 00:07:06"
"3319","中平國中","Jhongping Junior Hight School","120.7184","24.12264","太平區","Taiping Dist.","太平路300號旁","Next to Taiping Rd. 300","4","26","2019-11-16 00:07:06"
"3320","神圳國中","Shen Zun Juinor High School","120.6586","24.26049","神岡區","Shengang Dist.","神清路/神清路54巷口","Shenqing Rd. & Ln. 54, Shenqing Rd. Intersection","6","29","2019-11-16 00:07:06"
"3321","麗寶樂園","LihPao Land","120.6971","24.32349","后里區","Houli Dist.","福容路8號前","Before No. 8 Furong Rd.","9","21","2019-11-16 00:07:06"
"3322","大雅區公所","Daya District Office","120.6482","24.22917","大雅區","Daya Dist.","雅環路二段299號旁","Next to No. 299, Section 2, Ya Huan Rd.","14","16","2019-11-16 00:07:06"
"3323","太原火車站","Taiyuan Railway Station","120.7","24.16525","北屯區","Beitun Dist.","東光路/太原路三段口","Dongguang Rd. & Sec. 3, Taiyuan Rd. Intersection","28","41","2019-11-16 00:07:06"
"3324","清水火車站","Qingshui Railway Station","120.5703","24.26312","清水區","Qingshui Dist.","中正街/中正街73巷口","Zhongzheng St.& Ln.73, Zhongzheng St.Intersection","18","41","2019-11-16 00:07:06"
"3325","孟春兒童遊樂場","Meng Chun Children's Playground","120.653","24.38297","大甲區","Dajia Dist.","慈德路210號對面","Opposite to 210 Ted Rd.","14","15","2019-11-16 00:07:06"
"3326","中科管理局","Central Taiwan Science Park","120.6178","24.20889","西屯區","Xitun Dist.","中科路2號","No.2, Zhongke Rd.","14","16","2019-11-16 00:07:06"
"3327","巨大集團總部","Giant Headquarters","120.6115","24.20865","西屯區","Xitun Dist.","東大路一段/中科路口","Sec. 1, Dongda Rd. & Jhongke Rd.Intersection","16","14","2019-11-16 00:07:06"
"3328","中科標準廠房","Central Taiwan Science Park Standard Factory Buildings","120.6283","24.22431","大雅區","Daya Dist.","科雅路/科雅五路口","Keya Rd.& Keya 5nd Rd.Intersection","9","21","2019-11-16 00:07:06"
